{"type": "FeatureCollection", "features": [ {"type": "Feature", "properties": {"norad_id": 30435, "name": "FENGYUN 1C DEB", "group": "fengyun-1c-debris", "lat": 46.25032543740042, "lon": 169.424285051211, "alt_km": 843.1410881526544, "timestamp": "2025-12-19T22:41:52.668747+00:00", "meta": {"OBJECT_NAME": "FENGYUN 1C DEB", "OBJECT_ID": "1999-025AEW", "EPOCH": "2025-12-19T05:16:42.841920", "MEAN_MOTION": 13.79642582, "ECCENTRICITY": 0.0208277, "INCLINATION": 99.0166, "RA_OF_ASC_NODE": 339.1851, "ARG_OF_PERICENTER": 94.5046, "MEAN_ANOMALY": 33.9437, "EPHEMERIS_TYPE": 0, "CLASSIFICATION_TYPE": "U", "NORAD_CAT_ID": 30435, "ELEMENT_SET_NO": 999, "REV_AT_EPOCH": 94249, "BSTAR": 0.0012652, "MEAN_MOTION_DOT": 1.497e-05, "MEAN_MOTION_DDOT": 0}, "tle": {"line1": "1 30435U 99025AEW 25353.21994030  .00001497  00000+0  12652-2 0  9994", "line2": "2 30435  99.0166 339.1851 0208277  94.5046  33.9437 13.79642582942496"}}, "geometry": {"type": "Point", "coordinates": [169.424285051211, 46.25032543740042]}}, {"type": "Feature", "properties": {"norad_id": 30436, "name": "FENGYUN 1C DEB", "group": "fengyun-1c-debris", "lat": -28.19218131988574, "lon": 63.07288294480133, "alt_km": 829.8840227456794, "timestamp": "2025-12-19T22:41:52.668768+00:00", "meta": {"OBJECT_NAME": "FENGYUN 1C DEB", "OBJECT_ID": "1999-025AEX", "EPOCH": "2025-12-18T14:04:41.543616", "MEAN_MOTION": 14.22337673, "ECCENTRICITY": 0.00978277, "INCLINATION": 98.427, "RA_OF_ASC_NODE": 246.3309, "ARG_OF_PERICENTER": 116.378, "MEAN_ANOMALY": 335.4179, "EPHEMERIS_TYPE": 0, "CLASSIFICATION_TYPE": "U", "NORAD_CAT_ID": 30436, "ELEMENT_SET_NO": 999, "REV_AT_EPOCH": 96520, "BSTAR": 0.0015974238, "MEAN_MOTION_DOT": 3.691e-05, "MEAN_MOTION_DDOT": 0}, "tle": {"line1": "1 30436U 99025AEX 25352.58659194  .00003691  00000+0  15974-2 0  9991", "line2": "2 30436  98.4270 246.3309 0097827 116.3780 335.4179 14.22337673965206"}}, "geometry": {"type": "Point", "coordinates": [63.07288294480133, -28.19218131988574]}}, {"type": "Feature", "properties": {"norad_id": 30437, "name": "FENGYUN 1C DEB", "group": "fengyun-1c-debris", "lat": -19.423053765604802, "lon": -168.56845870966146, "alt_km": 620.6658066975251, "timestamp": "2025-12-19T22:41:52.668789+00:00", "meta": {"OBJECT_NAME": "FENGYUN 1C DEB", "OBJECT_ID": "1999-025AEY", "EPOCH": "2025-12-19T07:49:41.646144", "MEAN_MOTION": 14.88298382, "ECCENTRICITY": 0.0035605, "INCLINATION": 98.9208, "RA_OF_ASC_NODE": 13.9099, "ARG_OF_PERICENTER": 81.6245, "MEAN_ANOMALY": 39.9445, "EPHEMERIS_TYPE": 0, "CLASSIFICATION_TYPE": "U", "NORAD_CAT_ID": 30437, "ELEMENT_SET_NO": 999, "REV_AT_EPOCH": 99285, "BSTAR": 0.0015219, "MEAN_MOTION_DOT": 0.00014192, "MEAN_MOTION_DDOT": 0}, "tle": {"line1": "1 30437U 99025AEY 25353.32617646  .00014192  00000+0  15219-2 0  9991", "line2": "2 30437  98.9208  13.9099 0035605  81.6245  39.9445 14.88298382992851"}}, "geometry": {"type": "Point", "coordinates": [-168.56845870966146, -19.423053765604802]}}, {"type": "Feature", "properties": {"norad_id": 30438, "name": "FENGYUN 1C DEB", "group": "fengyun-1c-debris", "lat": 39.89106099653001, "lon": 3.1768855028059853, "alt_km": 975.760931510189, "timestamp": "2025-12-19T22:41:52.668811+00:00", "meta": {"OBJECT_NAME": "FENGYUN 1C DEB", "OBJECT_ID": "1999-025AEZ", "EPOCH": "2025-12-19T00:04:31.946592", "MEAN_MOTION": 13.92122223, "ECCENTRICITY": 0.01348399, "INCLINATION": 98.7498, "RA_OF_ASC_NODE": 9.683, "ARG_OF_PERICENTER": 169.6558, "MEAN_ANOMALY": 190.7427, "EPHEMERIS_TYPE": 0, "CLASSIFICATION_TYPE": "U", "NORAD_CAT_ID": 30438, "ELEMENT_SET_NO": 999, "REV_AT_EPOCH": 95393, "BSTAR": 0.00098847079, "MEAN_MOTION_DOT": 1.322e-05, "MEAN_MOTION_DDOT": 0}, "tle": {"line1": "1 30438U 99025AEZ 25353.00314753  .00001322  00000+0  98847-3 0  9990", "line2": "2 30438  98.7498   9.6830 0134839 169.6558 190.7427 13.92122223953935"}}, "geometry": {"type": "Point", "coordinates": [3.1768855028059853, 39.89106099653001]}}, {"type": "Feature", "properties": {"norad_id": 30439, "name": "FENGYUN 1C DEB", "group": "fengyun-1c-debris", "lat": 43.24382462150077, "lon": -2.8790746692056874, "alt_km": 858.4657784388583, "timestamp": "2025-12-19T22:41:52.668833+00:00", "meta": {"OBJECT_NAME": "FENGYUN 1C DEB", "OBJECT_ID": "1999-025AFA", "EPOCH": "2025-12-19T00:39:11.764800", "MEAN_MOTION": 14.08851173, "ECCENTRICITY": 0.0038465, "INCLINATION": 98.7494, "RA_OF_ASC_NODE": 4.5574, "ARG_OF_PERICENTER": 318.7685, "MEAN_ANOMALY": 108.6903, "EPHEMERIS_TYPE": 0, "CLASSIFICATION_TYPE": "U", "NORAD_CAT_ID": 30439, "ELEMENT_SET_NO": 999, "REV_AT_EPOCH": 96880, "BSTAR": 0.00038373129, "MEAN_MOTION_DOT": 6.24e-06, "MEAN_MOTION_DDOT": 0}, "tle": {"line1": "1 30439U 99025AFA 25353.02721950  .00000624  00000+0  38373-3 0  9996", "line2": "2 30439  98.7494   4.5574 0038465 318.7685 108.6903 14.08851173968807"}}, "geometry": {"type": "Point", "coordinates": [-2.8790746692056874, 43.24382462150077]}}, {"type": "Feature", "properties": {"norad_id": 30441, "name": "FENGYUN 1C DEB", "group": "fengyun-1c-debris", "lat": -32.40618503318568, "lon": 88.9003926996871, "alt_km": 972.4755460489587, "timestamp": "2025-12-19T22:41:52.668855+00:00", "meta": {"OBJECT_NAME": "FENGYUN 1C DEB", "OBJECT_ID": "1999-025AFC", "EPOCH": "2025-12-18T18:58:14.345184", "MEAN_MOTION": 13.77686331, "ECCENTRICITY": 0.01840848, "INCLINATION": 99.1345, "RA_OF_ASC_NODE": 81.9272, "ARG_OF_PERICENTER": 241.614, "MEAN_ANOMALY": 116.6346, "EPHEMERIS_TYPE": 0, "CLASSIFICATION_TYPE": "U", "NORAD_CAT_ID": 30441, "ELEMENT_SET_NO": 999, "REV_AT_EPOCH": 94953, "BSTAR": 0.0005008579, "MEAN_MOTION_DOT": 5.23e-06, "MEAN_MOTION_DDOT": 0}, "tle": {"line1": "1 30441U 99025AFC 25352.79044381  .00000523  00000+0  50086-3 0  9991", "line2": "2 30441  99.1345  81.9272 0184084 241.6140 116.6346 13.77686331949539"}}, "geometry": {"type": "Point", "coordinates": [88.9003926996871, -32.40618503318568]}}, {"type": "Feature", "properties": {"norad_id": 30442, "name": "FENGYUN 1C DEB", "group": "fengyun-1c-debris", "lat": -71.77435959804261, "lon": -120.64095586916937, "alt_km": 764.5345480989881, "timestamp": "2025-12-19T22:41:52.668877+00:00", "meta": {"OBJECT_NAME": "FENGYUN 1C DEB", "OBJECT_ID": "1999-025AFD", "EPOCH": "2025-12-19T04:42:02.871648", "MEAN_MOTION": 14.28671766, "ECCENTRICITY": 0.0055481, "INCLINATION": 98.8669, "RA_OF_ASC_NODE": 86.8965, "ARG_OF_PERICENTER": 268.5973, "MEAN_ANOMALY": 90.8852, "EPHEMERIS_TYPE": 0, "CLASSIFICATION_TYPE": "U", "NORAD_CAT_ID": 30442, "ELEMENT_SET_NO": 999, "REV_AT_EPOCH": 97254, "BSTAR": 0.0015116, "MEAN_MOTION_DOT": 3.818e-05, "MEAN_MOTION_DDOT": 0}, "tle": {"line1": "1 30442U 99025AFD 25353.19586657  .00003818  00000+0  15116-2 0  9998", "line2": "2 30442  98.8669  86.8965 0055481 268.5973  90.8852 14.28671766972543"}}, "geometry": {"type": "Point", "coordinates": [-120.64095586916937, -71.77435959804261]}}, {"type": "Feature", "properties": {"norad_id": 30443, "name": "FENGYUN 1C DEB", "group": "fengyun-1c-debris", "lat": -81.0221705535881, "lon": 21.677994578264528, "alt_km": 762.8095068839984, "timestamp": "2025-12-19T22:41:52.668900+00:00", "meta": {"OBJECT_NAME": "FENGYUN 1C DEB", "OBJECT_ID": "1999-025AFE", "EPOCH": "2025-12-19T09:44:15.022752", "MEAN_MOTION": 14.36877965, "ECCENTRICITY": 0.0027227, "INCLINATION": 98.8489, "RA_OF_ASC_NODE": 300.7065, "ARG_OF_PERICENTER": 319.9664, "MEAN_ANOMALY": 39.9514, "EPHEMERIS_TYPE": 0, "CLASSIFICATION_TYPE": "U", "NORAD_CAT_ID": 30443, "ELEMENT_SET_NO": 999, "REV_AT_EPOCH": 97529, "BSTAR": 0.0015537, "MEAN_MOTION_DOT": 4.569e-05, "MEAN_MOTION_DDOT": 0}, "tle": {"line1": "1 30443U 99025AFE 25353.40572943  .00004569  00000+0  15537-2 0  9997", "line2": "2 30443  98.8489 300.7065 0027227 319.9664  39.9514 14.36877965975290"}}, "geometry": {"type": "Point", "coordinates": [21.677994578264528, -81.0221705535881]}}, {"type": "Feature", "properties": {"norad_id": 30445, "name": "FENGYUN 1C DEB", "group": "fengyun-1c-debris", "lat": -21.819341800281528, "lon": 122.06277652043111, "alt_km": 802.6479137222868, "timestamp": "2025-12-19T22:41:52.668923+00:00", "meta": {"OBJECT_NAME": "FENGYUN 1C DEB", "OBJECT_ID": "1999-025AFG", "EPOCH": "2025-12-19T08:30:21.085344", "MEAN_MOTION": 14.48781834, "ECCENTRICITY": 0.0105536, "INCLINATION": 98.8361, "RA_OF_ASC_NODE": 305.0147, "ARG_OF_PERICENTER": 358.5274, "MEAN_ANOMALY": 1.5592, "EPHEMERIS_TYPE": 0, "CLASSIFICATION_TYPE": "U", "NORAD_CAT_ID": 30445, "ELEMENT_SET_NO": 999, "REV_AT_EPOCH": 99280, "BSTAR": 0.00054138, "MEAN_MOTION_DOT": 2.139e-05, "MEAN_MOTION_DDOT": 0}, "tle": {"line1": "1 30445U 99025AFG 25353.35441071  .00002139  00000+0  54138-3 0  9992", "line2": "2 30445  98.8361 305.0147 0105536 358.5274   1.5592 14.48781834992805"}}, "geometry": {"type": "Point", "coordinates": [122.06277652043111, -21.819341800281528]}}, {"type": "Feature", "properties": {"norad_id": 30446, "name": "FENGYUN 1C DEB", "group": "fengyun-1c-debris", "lat": -57.39055604158836, "lon": -117.16010519035545, "alt_km": 772.9646178829889, "timestamp": "2025-12-19T22:41:52.668945+00:00", "meta": {"OBJECT_NAME": "FENGYUN 1C DEB", "OBJECT_ID": "1999-025AFH", "EPOCH": "2025-12-19T11:37:40.153728", "MEAN_MOTION": 14.44796276, "ECCENTRICITY": 0.0034383, "INCLINATION": 98.6139, "RA_OF_ASC_NODE": 76.0783, "ARG_OF_PERICENTER": 78.2319, "MEAN_ANOMALY": 282.2726, "EPHEMERIS_TYPE": 0, "CLASSIFICATION_TYPE": "U", "NORAD_CAT_ID": 30446, "ELEMENT_SET_NO": 999, "REV_AT_EPOCH": 98274, "BSTAR": 0.001125, "MEAN_MOTION_DOT": 3.893e-05, "MEAN_MOTION_DDOT": 0}, "tle": {"line1": "1 30446U 99025AFH 25353.48449252  .00003893  00000+0  11250-2 0  9991", "line2": "2 30446  98.6139  76.0783 0034383  78.2319 282.2726 14.44796276982746"}}, "geometry": {"type": "Point", "coordinates": [-117.16010519035545, -57.39055604158836]}}]}